ONEWEB-0549             
1 56051U 23043F   25353.84101460 -.00000037  00000+0 -12097-3 0  9994
2 56051  87.9224 279.7587 0001794  66.9160 293.2163 13.21826375134535
ONEWEB-0550             
1 56052U 23043G   25354.05492433  .00000167  00000+0  37364-3 0  9998
2 56052  87.9226 279.7112 0001839  79.8486 280.2855 13.21823967134567
ONEWEB-0551             
1 56053U 23043H   25353.88810955 -.00000072  00000+0 -22635-3 0  9994
2 56053  87.8998 295.0115 0001890  71.5823 288.5513 13.15549369132821
ONEWEB-0552             
1 56054U 23043J   25353.36872980  .00000110  00000+0  23362-3 0  9993
2 56054  87.9221 279.8566 0002016  70.6099 289.5253 13.21826969134474
ONEWEB-0553             
1 56055U 23043K   25354.05708147  .00000065  00000+0  13581-3 0  9995
2 56055  87.9048 264.4421 0001481  85.8531 274.2769 13.16596310135401
ONEWEB-0554             
1 56056U 23043L   25353.20845670  .00000172  00000+0  41750-3 0  9993
2 56056  87.9032 264.6244 0001878  80.9843 279.1501 13.16592226135277
ONEWEB-0555             
1 56057U 23043M   25354.15841940 -.00000028  00000+0 -10646-3 0  9997
2 56057  87.9048 264.4167 0001335  91.5697 268.5587 13.16596202135409
ONEWEB-0557             
1 56058U 23043N   25354.17266226  .00000011  00000+0 -48036-5 0  9995
2 56058  87.9047 264.4267 0002377 107.2008 252.9383 13.16592199135400
